{"type": "FeatureCollection", "features": [ {"type": "Feature", "properties": {"norad_id": 66727, "name": "FLOCK 4H-24", "group": "last-30-days", "lat": 37.60464724427978, "lon": -103.50011072462264, "alt_km": 511.83441407095415, "timestamp": "2025-12-25T03:55:54.953081+00:00", "meta": {"OBJECT_NAME": "FLOCK 4H-24", "OBJECT_ID": "2025-276BP", "EPOCH": "2025-12-24T19:23:40.786944", "MEAN_MOTION": 15.17348498, "ECCENTRICITY": 0.000287, "INCLINATION": 97.4437, "RA_OF_ASC_NODE": 70.3707, "ARG_OF_PERICENTER": 252.5486, "MEAN_ANOMALY": 107.5434, "EPHEMERIS_TYPE": 0, "CLASSIFICATION_TYPE": "U", "NORAD_CAT_ID": 66727, "ELEMENT_SET_NO": 999, "REV_AT_EPOCH": 395, "BSTAR": 0.0003022, "MEAN_MOTION_DOT": 5.965e-05, "MEAN_MOTION_DDOT": 0}, "tle": {"line1": "1 66727U 25276BP  25358.80811096  .00005965  00000+0  30220-3 0  9990", "line2": "2 66727  97.4437  70.3707 0002870 252.5486 107.5434 15.17348498  3958"}}, "geometry": {"type": "Point", "coordinates": [-103.50011072462264, 37.60464724427978]}}, {"type": "Feature", "properties": {"norad_id": 66728, "name": "FLOCK 4H-25", "group": "last-30-days", "lat": -45.841506594964216, "lon": -116.99531398602596, "alt_km": 518.4219039475074, "timestamp": "2025-12-25T03:55:54.953092+00:00", "meta": {"OBJECT_NAME": "FLOCK 4H-25", "OBJECT_ID": "2025-276BQ", "EPOCH": "2025-12-24T19:01:46.425216", "MEAN_MOTION": 15.18234896, "ECCENTRICITY": 0.0001739, "INCLINATION": 97.4394, "RA_OF_ASC_NODE": 70.3733, "ARG_OF_PERICENTER": 115.6706, "MEAN_ANOMALY": 244.4708, "EPHEMERIS_TYPE": 0, "CLASSIFICATION_TYPE": "U", "NORAD_CAT_ID": 66728, "ELEMENT_SET_NO": 999, "REV_AT_EPOCH": 323, "BSTAR": 0.00028704, "MEAN_MOTION_DOT": 5.809e-05, "MEAN_MOTION_DDOT": 0}, "tle": {"line1": "1 66728U 25276BQ  25358.79289844  .00005809  00000+0  28704-3 0  9990", "line2": "2 66728  97.4394  70.3733 0001739 115.6706 244.4708 15.18234896  3230"}}, "geometry": {"type": "Point", "coordinates": [-116.99531398602596, -45.841506594964216]}}, {"type": "Feature", "properties": {"norad_id": 66729, "name": "FLOCK 4H-26", "group": "last-30-days", "lat": 56.04332574775383, "lon": -98.11855727280614, "alt_km": 510.5932575096249, "timestamp": "2025-12-25T03:55:54.953102+00:00", "meta": {"OBJECT_NAME": "FLOCK 4H-26", "OBJECT_ID": "2025-276BR", "EPOCH": "2025-12-24T19:28:34.051872", "MEAN_MOTION": 15.17172639, "ECCENTRICITY": 0.0003686, "INCLINATION": 97.439, "RA_OF_ASC_NODE": 70.3476, "ARG_OF_PERICENTER": 251.4831, "MEAN_ANOMALY": 108.6002, "EPHEMERIS_TYPE": 0, "CLASSIFICATION_TYPE": "U", "NORAD_CAT_ID": 66729, "ELEMENT_SET_NO": 999, "REV_AT_EPOCH": 395, "BSTAR": 0.00036564, "MEAN_MOTION_DOT": 7.197e-05, "MEAN_MOTION_DDOT": 0}, "tle": {"line1": "1 66729U 25276BR  25358.81150523  .00007197  00000+0  36564-3 0  9990", "line2": "2 66729  97.4390  70.3476 0003686 251.4831 108.6002 15.17172639  3954"}}, "geometry": {"type": "Point", "coordinates": [-98.11855727280614, 56.04332574775383]}}, {"type": "Feature", "properties": {"norad_id": 66730, "name": "FLOCK 4H-27", "group": "last-30-days", "lat": -33.30671686894707, "lon": -114.19954408361787, "alt_km": 517.7523638032708, "timestamp": "2025-12-25T03:55:54.953112+00:00", "meta": {"OBJECT_NAME": "FLOCK 4H-27", "OBJECT_ID": "2025-276BS", "EPOCH": "2025-12-24T19:05:05.044128", "MEAN_MOTION": 15.18105829, "ECCENTRICITY": 0.0001367, "INCLINATION": 97.437, "RA_OF_ASC_NODE": 70.3617, "ARG_OF_PERICENTER": 126.669, "MEAN_ANOMALY": 233.467, "EPHEMERIS_TYPE": 0, "CLASSIFICATION_TYPE": "U", "NORAD_CAT_ID": 66730, "ELEMENT_SET_NO": 999, "REV_AT_EPOCH": 395, "BSTAR": 0.00035292, "MEAN_MOTION_DOT": 7.132e-05, "MEAN_MOTION_DDOT": 0}, "tle": {"line1": "1 66730U 25276BS  25358.79519727  .00007132  00000+0  35292-3 0  9990", "line2": "2 66730  97.4370  70.3617 0001367 126.6690 233.4670 15.18105829  3957"}}, "geometry": {"type": "Point", "coordinates": [-114.19954408361787, -33.30671686894707]}}, {"type": "Feature", "properties": {"norad_id": 66731, "name": "FLOCK 4H-28", "group": "last-30-days", "lat": 54.477602673745565, "lon": -98.76557060220638, "alt_km": 510.61831678561157, "timestamp": "2025-12-25T03:55:54.953122+00:00", "meta": {"OBJECT_NAME": "FLOCK 4H-28", "OBJECT_ID": "2025-276BT", "EPOCH": "2025-12-24T19:28:08.563008", "MEAN_MOTION": 15.17156182, "ECCENTRICITY": 0.0003074, "INCLINATION": 97.4378, "RA_OF_ASC_NODE": 70.3439, "ARG_OF_PERICENTER": 254.7297, "MEAN_ANOMALY": 105.3597, "EPHEMERIS_TYPE": 0, "CLASSIFICATION_TYPE": "U", "NORAD_CAT_ID": 66731, "ELEMENT_SET_NO": 999, "REV_AT_EPOCH": 395, "BSTAR": 0.00077978, "MEAN_MOTION_DOT": 0.00015432, "MEAN_MOTION_DDOT": 0}, "tle": {"line1": "1 66731U 25276BT  25358.81121022  .00015432  00000+0  77978-3 0  9990", "line2": "2 66731  97.4378  70.3439 0003074 254.7297 105.3597 15.17156182  3953"}}, "geometry": {"type": "Point", "coordinates": [-98.76557060220638, 54.477602673745565]}}, {"type": "Feature", "properties": {"norad_id": 66732, "name": "FLOCK 4H-29", "group": "last-30-days", "lat": 40.892624295746366, "lon": -102.80437688553903, "alt_km": 510.4406425657844, "timestamp": "2025-12-25T03:55:54.953132+00:00", "meta": {"OBJECT_NAME": "FLOCK 4H-29", "OBJECT_ID": "2025-276BU", "EPOCH": "2025-12-23T03:50:31.112448", "MEAN_MOTION": 15.17286901, "ECCENTRICITY": 0.00020889, "INCLINATION": 97.4392, "RA_OF_ASC_NODE": 68.7307, "ARG_OF_PERICENTER": 236.6345, "MEAN_ANOMALY": 123.4689, "EPHEMERIS_TYPE": 0, "CLASSIFICATION_TYPE": "U", "NORAD_CAT_ID": 66732, "ELEMENT_SET_NO": 999, "REV_AT_EPOCH": 370, "BSTAR": 0.0019114481, "MEAN_MOTION_DOT": 0.00038183, "MEAN_MOTION_DDOT": 0}, "tle": {"line1": "1 66732U 25276BU  25357.16008232  .00038183  00000+0  19114-2 0  9990", "line2": "2 66732  97.4392  68.7307 0002088 236.6345 123.4689 15.17286901  3701"}}, "geometry": {"type": "Point", "coordinates": [-102.80437688553903, 40.892624295746366]}}, {"type": "Feature", "properties": {"norad_id": 66733, "name": "FLOCK 4H-30", "group": "last-30-days", "lat": 47.68240081221846, "lon": -101.03139231580859, "alt_km": 510.98150278096, "timestamp": "2025-12-25T03:55:54.953142+00:00", "meta": {"OBJECT_NAME": "FLOCK 4H-30", "OBJECT_ID": "2025-276BV", "EPOCH": "2025-12-24T20:00:01.000224", "MEAN_MOTION": 15.1730907, "ECCENTRICITY": 0.0003201, "INCLINATION": 97.4435, "RA_OF_ASC_NODE": 70.3881, "ARG_OF_PERICENTER": 252.574, "MEAN_ANOMALY": 235.116, "EPHEMERIS_TYPE": 0, "CLASSIFICATION_TYPE": "U", "NORAD_CAT_ID": 66733, "ELEMENT_SET_NO": 999, "REV_AT_EPOCH": 338, "BSTAR": -0.0026128, "MEAN_MOTION_DOT": -0.00051747, "MEAN_MOTION_DDOT": 0}, "tle": {"line1": "1 66733U 25276BV  25358.83334491 -.00051747  00000+0 -26128-2 0  9991", "line2": "2 66733  97.4435  70.3881 0003201 252.5740 235.1160 15.17309070  3382"}}, "geometry": {"type": "Point", "coordinates": [-101.03139231580859, 47.68240081221846]}}, {"type": "Feature", "properties": {"norad_id": 66734, "name": "FLOCK 4H-31", "group": "last-30-days", "lat": 47.464711401435665, "lon": -101.12661764951876, "alt_km": 511.57187862472256, "timestamp": "2025-12-25T03:55:54.953152+00:00", "meta": {"OBJECT_NAME": "FLOCK 4H-31", "OBJECT_ID": "2025-276BW", "EPOCH": "2025-12-24T08:00:03.000384", "MEAN_MOTION": 15.17247903, "ECCENTRICITY": 0.00027526, "INCLINATION": 97.4368, "RA_OF_ASC_NODE": 69.8732, "ARG_OF_PERICENTER": 268.135, "MEAN_ANOMALY": 10.7747, "EPHEMERIS_TYPE": 0, "CLASSIFICATION_TYPE": "U", "NORAD_CAT_ID": 66734, "ELEMENT_SET_NO": 999, "REV_AT_EPOCH": 330, "BSTAR": -0.002726258, "MEAN_MOTION_DOT": -0.0005388, "MEAN_MOTION_DDOT": 0}, "tle": {"line1": "1 66734U 25276BW  25358.33336806 -.00053880  00000+0 -27263-2 0  9990", "line2": "2 66734  97.4368  69.8732 0002752 268.1350  10.7747 15.17247903  3302"}}, "geometry": {"type": "Point", "coordinates": [-101.12661764951876, 47.464711401435665]}}, {"type": "Feature", "properties": {"norad_id": 66735, "name": "FLOCK 4H-32", "group": "last-30-days", "lat": 49.66543697048062, "lon": -100.43552511276015, "alt_km": 508.9367036685344, "timestamp": "2025-12-25T03:55:54.953166+00:00", "meta": {"OBJECT_NAME": "FLOCK 4H-32", "OBJECT_ID": "2025-276BX", "EPOCH": "2025-12-24T19:26:51.434592", "MEAN_MOTION": 15.17199294, "ECCENTRICITY": 0.0004197, "INCLINATION": 97.4425, "RA_OF_ASC_NODE": 70.3611, "ARG_OF_PERICENTER": 202.391, "MEAN_ANOMALY": 157.7141, "EPHEMERIS_TYPE": 0, "CLASSIFICATION_TYPE": "U", "NORAD_CAT_ID": 66735, "ELEMENT_SET_NO": 999, "REV_AT_EPOCH": 395, "BSTAR": -0.00044288, "MEAN_MOTION_DOT": -8.851e-05, "MEAN_MOTION_DDOT": 0}, "tle": {"line1": "1 66735U 25276BX  25358.81031753 -.00008851  00000+0 -44288-3 0  9992", "line2": "2 66735  97.4425  70.3611 0004197 202.3910 157.7141 15.17199294  3957"}}, "geometry": {"type": "Point", "coordinates": [-100.43552511276015, 49.66543697048062]}}, {"type": "Feature", "properties": {"norad_id": 66736, "name": "FLOCK 4H-33", "group": "last-30-days", "lat": -49.05027588158979, "lon": -117.91391588127125, "alt_km": 517.4303238463508, "timestamp": "2025-12-25T03:55:54.953176+00:00", "meta": {"OBJECT_NAME": "FLOCK 4H-33", "OBJECT_ID": "2025-276BY", "EPOCH": "2025-12-24T19:00:56.469600", "MEAN_MOTION": 15.1831439, "ECCENTRICITY": 0.0002806, "INCLINATION": 97.4423, "RA_OF_ASC_NODE": 70.3847, "ARG_OF_PERICENTER": 152.8889, "MEAN_ANOMALY": 207.2492, "EPHEMERIS_TYPE": 0, "CLASSIFICATION_TYPE": "U", "NORAD_CAT_ID": 66736, "ELEMENT_SET_NO": 999, "REV_AT_EPOCH": 395, "BSTAR": 0.00039182, "MEAN_MOTION_DOT": 7.975e-05, "MEAN_MOTION_DDOT": 0}, "tle": {"line1": "1 66736U 25276BY  25358.79232025  .00007975  00000+0  39182-3 0  9996", "line2": "2 66736  97.4423  70.3847 0002806 152.8889 207.2492 15.18314390  3953"}}, "geometry": {"type": "Point", "coordinates": [-117.91391588127125, -49.05027588158979]}}]}